IRIDIUM 57 [-]          
1 25273U 98019B   23276.85529341  .00000778  00000+0  26706-3 0  9998
2 25273  86.3976  45.8412 0002114  92.0237 268.1201 14.34919265335729
IRIDIUM 63 [-]          
1 25286U 98021B   23276.55430895  .00000672  00000+0  22740-3 0  9994
2 25286  86.4027 342.9410 0002357  95.8102 264.3363 14.35428115334491
IRIDIUM 69 [-]          
1 25319U 98026A   23276.60834131  .00000977  00000+0  30684-3 0  9997
2 25319  86.4043 358.0382 0000065 347.5735  12.5462 14.39592979333457
IRIDIUM 71 [-]          
1 25320U 98026B   23276.59680881  .00000844  00000+0  26235-3 0  9998
2 25320  86.4033 352.8802 0002383  38.2232 321.9135 14.39929731333968
IRIDIUM 73 [-]          
1 25344U 98032C   23276.60262820  .00000793  00000+0  19941-3 0  9991
2 25344  86.4395 310.7374 0001688  83.8878 276.2519 14.50045436340297
IRIDIUM 82 [-]          
1 25467U 98051A   23276.38521116  .00017188  00000+0  10104-2 0  9996
2 25467  86.3973  46.9341 0149188  82.5008 279.3146 15.02550442329681
IRIDIUM 2 [-]           
1 25527U 98066A   23276.57274939  .00039332  00000+0  95411-3 0  9998
2 25527  85.5156 105.6066 0003787 227.8610 132.2322 15.40873034367824
